NORAD_CAT_ID,OBJECT_NAME,OBJECT_TYPE,EPOCH,MEAN_MOTION,ECCENTRICITY,INCLINATION,RA_OF_ASC_NODE,ARG_OF_PERICENTER,MEAN_ANOMALY,BSTAR,MEAN_MOTION_DOT,MEAN_MOTION_DDOT,TLE_LINE0,TLE_LINE1,TLE_LINE2,SEMIMAJOR_AXIS,PERIOD,APOGEE,PERIGEE,DECAYED
55648.0,STARLINK-5501,PAYLOAD,2024-05-02 07:09:57,14.98333199,0.000303,69.9992,89.9158,263.2824,96.799,6.4111e-05,6.72e-06,0.0,0 STARLINK-5501,1 55648U 23021W   24123.29858207  .00000672  00000-0  64111-4 0  9991,2 55648  69.9992  89.9158 0003030 263.2824  96.7990 14.98333199 67471,6950.183,96.107,574.154,569.942,0.0
55648.0,STARLINK-5501,PAYLOAD,2024-05-03 05:35:49,14.98336831,0.0003218,69.9986,87.5591,265.0222,95.057,0.0001173,1.307e-05,0.0,0 STARLINK-5501,1 55648U 23021W   24124.23321665  .00001307  00000-0  11730-3 0  9993,2 55648  69.9986  87.5591 0003218 265.0222  95.0570 14.98336831 67314,6950.172,96.107,574.273,569.8,0.0
55648.0,STARLINK-5501,PAYLOAD,2024-05-03 07:11:57,14.98338815,0.0003106,69.9988,87.3907,265.2286,94.8519,0.00012863,1.442e-05,0.0,0 STARLINK-5501,1 55648U 23021W   24124.29997506  .00001442  00000-0  12863-3 0  9990,2 55648  69.9988  87.3907 0003106 265.2286  94.8519 14.98338815 67621,6950.166,96.106,574.189,569.872,0.0
55648.0,STARLINK-5501,PAYLOAD,2024-05-03 21:37:11,14.9832583,0.0002817,70.001,85.8737,265.1088,94.9749,-3.8e-07,-9.7e-07,0.0,0 STARLINK-5501,1 55648U 23021W   24124.90082667 -.00000097  00000-0 -38000-6 0  9992,2 55648  70.0010  85.8737 0002817 265.1088  94.9749 14.98325830 67417,6950.206,96.107,574.029,570.113,0.0
55648.0,STARLINK-5501,PAYLOAD,2024-05-04 05:37:52,14.98320575,0.0003057,69.9994,85.0346,266.8243,93.2566,-9.3775e-05,-1.211e-05,0.0,0 STARLINK-5501,1 55648U 23021W   24125.23463355 -.00001211  00000-0 -93775-4 0  9993,2 55648  69.9994  85.0346 0003057 266.8243  93.2566 14.98320575 67466,6950.222,96.108,574.212,569.962,0.0
55648.0,STARLINK-5501,PAYLOAD,2024-05-05 04:03:44,14.98328703,0.0003398,69.999,82.6779,271.4298,88.6472,3.3445e-05,3.06e-06,0.0,0 STARLINK-5501,1 55648U 23021W   24126.16926821  .00000306  00000-0  33445-4 0  9998,2 55648  69.9990  82.6779 0003398 271.4298  88.6472 14.98328703 67606,6950.197,96.107,574.424,569.7,0.0
55648.0,STARLINK-5501,PAYLOAD,2024-05-05 07:16:00,14.98334476,0.0003072,69.9992,82.3409,267.4215,92.6592,1.5327e-05,9e-07,0.0,0 STARLINK-5501,1 55648U 23021W   24126.30278519  .00000090  00000-0  15327-4 0  9997,2 55648  69.9992  82.3409 0003072 267.4215  92.6592 14.98334476 67925,6950.179,96.107,574.179,569.909,0.0
55648.0,STARLINK-5501,PAYLOAD,2024-05-05 21:41:12,14.983309,0.0003067,69.9993,80.826,268.5928,91.4879,0.00024353,2.814e-05,0.0,0 STARLINK-5501,1 55648U 23021W   24126.90362083  .00002814  00000-0  24353-3 0  9997,2 55648  69.9993  80.8260 0003067 268.5928  91.4879 14.98330900 68015,6950.19,96.107,574.187,569.923,0.0
55648.0,STARLINK-5501,PAYLOAD,2024-05-06 04:05:44,14.98338746,0.0003042,69.9993,80.1527,268.4438,91.6373,0.00029786,3.464e-05,0.0,0 STARLINK-5501,1 55648U 23021W   24127.17065537  .00003464  00000-0  29786-3 0  9998,2 55648  69.9993  80.1527 0003042 268.4438  91.6373 14.98338746 67759,6950.166,96.106,574.145,569.917,0.0
55648.0,STARLINK-5501,PAYLOAD,2024-05-06 13:42:33,14.98331855,0.000262,70.0008,79.1425,269.9458,90.1401,0.00022509,2.594e-05,0.0,0 STARLINK-5501,1 55648U 23021W   24127.57122236  .00002594  00000-0  22509-3 0  9991,2 55648  70.0008  79.1425 0002620 269.9458  90.1401 14.98331855 68114,6950.187,96.107,573.873,570.231,0.0
55648.0,STARLINK-5501,PAYLOAD,2024-05-06 21:43:13,14.98337609,0.0002878,70.001,78.3019,267.3997,92.6833,0.00013636,1.535e-05,0.0,0 STARLINK-5501,1 55648U 23021W   24127.90501770  .00001535  00000-0  13636-3 0  9997,2 55648  70.0010  78.3019 0002878 267.3997  92.6833 14.98337609 67862,6950.169,96.107,574.035,570.034,0.0
55648.0,STARLINK-5501,PAYLOAD,2024-05-07 13:44:33,14.98368216,0.0002862,70.0008,76.6176,272.9131,87.17,-0.00061481,-7.428e-05,0.0,0 STARLINK-5501,1 55648U 23021W   24128.57260804 -.00007428  00000-0 -61481-3 0  9991,2 55648  70.0008  76.6176 0002862 272.9131  87.1700 14.98368216 68264,6950.075,96.105,573.929,569.951,0.0
55648.0,STARLINK-5501,PAYLOAD,2024-05-07 21:45:14,14.98333267,0.0002668,70.0005,75.777,264.3587,95.7268,-0.0001206,-1.532e-05,0.0,0 STARLINK-5501,1 55648U 23021W   24128.90642190 -.00001532  00000-0 -12060-3 0  9999,2 55648  70.0005  75.7770 0002668 264.3587  95.7268 14.98333267 68313,6950.183,96.107,573.902,570.193,0.0
55648.0,STARLINK-5501,PAYLOAD,2024-05-08 04:09:47,14.98330524,0.0002714,70.0006,75.1042,261.3004,98.7847,-0.00014202,-1.787e-05,0.0,0 STARLINK-5501,1 55648U 23021W   24129.17346365 -.00001787  00000-0 -14202-3 0  9996,2 55648  70.0006  75.1042 0002714 261.3004  98.7847 14.98330524 68053,6950.191,96.107,573.943,570.17,0.0
55648.0,STARLINK-5501,PAYLOAD,2024-05-08 13:46:35,14.98332733,0.0002817,70.0004,74.094,265.7639,94.3198,-0.00010256,-1.317e-05,0.0,0 STARLINK-5501,1 55648U 23021W   24129.57402058 -.00001317  00000-0 -10256-3 0  9996,2 55648  70.0004  74.0940 0002817 265.7639  94.3198 14.98332733 68417,6950.184,96.107,574.007,570.092,0.0
55648.0,STARLINK-5501,PAYLOAD,2024-05-08 21:47:15,14.98330326,0.0002915,70.0005,73.2524,267.4544,92.6281,-2.0486e-05,-3.37e-06,0.0,0 STARLINK-5501,1 55648U 23021W   24129.90781943 -.00000337  00000-0 -20486-4 0  9994,2 55648  70.0005  73.2524 0002915 267.4544  92.6281 14.98330326 68465,6950.192,96.107,574.083,570.031,0.0
55648.0,STARLINK-5501,PAYLOAD,2024-05-09 04:11:47,14.98334439,0.0002976,70.0001,72.5782,266.0456,94.0363,1.1811e-05,4.8e-07,0.0,0 STARLINK-5501,1 55648U 23021W   24130.17485609  .00000048  00000-0  11811-4 0  9994,2 55648  70.0001  72.5782 0002976 266.0456  94.0363 14.98334439 68201,6950.179,96.107,574.113,569.976,0.0
55648.0,STARLINK-5501,PAYLOAD,2024-05-09 05:47:55,14.98334581,0.0002729,70.0006,72.4107,257.8671,102.2182,2.1758e-05,1.67e-06,0.0,0 STARLINK-5501,1 55648U 23021W   24130.24161565  .00000167  00000-0  21758-4 0  9997,2 55648  70.0006  72.4107 0002729 257.8671 102.2182 14.98334581 68512,6950.179,96.107,573.94,570.147,0.0
55648.0,STARLINK-5501,PAYLOAD,2024-05-09 20:13:08,14.98303115,0.000304,70.0001,70.8943,262.9949,97.0864,0.00053036,6.236e-05,0.0,0 STARLINK-5501,1 55648U 23021W   24130.84246389  .00006236  00000-0  53036-3 0  9997,2 55648  70.0001  70.8943 0003040 262.9949  97.0864 14.98303115 68303,6950.276,96.109,574.254,570.028,0.0
55648.0,STARLINK-5501,PAYLOAD,2024-05-09 21:49:16,14.98325398,0.0003012,70.0001,70.7261,265.4698,94.6117,0.0001245,1.393e-05,0.0,0 STARLINK-5501,1 55648U 23021W   24130.90921974  .00001393  00000-0  12450-3 0  9998,2 55648  70.0001  70.7261 0003012 265.4698  94.6117 14.98325398 68618,6950.207,96.107,574.166,569.979,0.0
55648.0,STARLINK-5501,PAYLOAD,2024-05-10 04:13:48,14.98332096,0.0003002,70.0,70.0525,264.8145,95.2671,0.00014321,1.616e-05,0.0,0 STARLINK-5501,1 55648U 23021W   24131.17625609  .00001616  00000-0  14321-3 0  9991,2 55648  70.0000  70.0525 0003002 264.8145  95.2671 14.98332096 68358,6950.186,96.107,574.138,569.965,0.0
55648.0,STARLINK-5501,PAYLOAD,2024-05-10 13:50:37,14.98329603,0.0002841,70.0005,69.0422,265.5969,94.4866,8.5871e-05,9.32e-06,0.0,0 STARLINK-5501,1 55648U 23021W   24131.57681980  .00000932  00000-0  85871-4 0  9998,2 55648  70.0005  69.0422 0002841 265.5969  94.4866 14.98329603 68716,6950.194,96.107,574.034,570.085,0.0
55648.0,STARLINK-5501,PAYLOAD,2024-05-10 21:51:17,14.98332179,0.0002803,70.0011,68.2013,267.9583,92.1255,0.00010307,1.137e-05,0.0,0 STARLINK-5501,1 55648U 23021W   24131.91061808  .00001137  00000-0  10307-3 0  9996,2 55648  70.0011  68.2013 0002803 267.9583  92.1255 14.98332179 68760,6950.186,96.107,573.999,570.103,0.0
55648.0,STARLINK-5501,PAYLOAD,2024-05-11 04:15:48,14.98346134,0.0002379,70.0017,67.5305,232.8708,127.2234,0.0002132,2.453e-05,0.0,0 STARLINK-5501,1 55648U 23021W   24132.17764633  .00002453  00000-0  21320-3 0  9990,2 55648  70.0017  67.5305 0002379 232.8708 127.2234 14.98346134 68505,6950.143,96.106,573.661,570.355,0.0
55648.0,STARLINK-5501,PAYLOAD,2024-05-11 05:51:54,14.98372984,0.0002804,70.0008,67.3599,272.6039,87.4799,0.00049052,5.771e-05,0.0,0 STARLINK-5501,1 55648U 23021W   24132.24438290  .00005771  00000-0  49052-3 0  9993,2 55648  70.0008  67.3599 0002804 272.6039  87.4799 14.98372984 68516,6950.06,96.104,573.874,569.976,0.0
55648.0,STARLINK-5501,PAYLOAD,2024-05-11 20:17:08,14.98321823,0.0003953,70.0025,65.8448,276.4712,83.5997,-0.00045798,-5.553e-05,0.0,0 STARLINK-5501,1 55648U 23021W   24132.84524023 -.00005553  00000-0 -45798-3 0  9992,2 55648  70.0025  65.8448 0003953 276.4712  83.5997 14.98321823 68600,6950.218,96.108,574.831,569.336,0.0
55648.0,STARLINK-5501,PAYLOAD,2024-05-11 21:53:16,14.98318342,0.0003452,70.0024,65.6767,277.5925,82.4842,-0.00053637,-6.485e-05,0.0,0 STARLINK-5501,1 55648U 23021W   24132.91200174 -.00006485  00000-0 -53637-3 0  9994,2 55648  70.0024  65.6767 0003452 277.5925  82.4842 14.98318342 68916,6950.229,96.108,574.493,569.695,0.0
55648.0,STARLINK-5501,PAYLOAD,2024-05-12 12:18:31,14.98282701,0.0003037,70.0032,64.1619,274.0716,86.0096,-0.0011125,-0.00013326,0.0,0 STARLINK-5501,1 55648U 23021W   24133.51286714 -.00013326  00000-0 -11125-2 0  9992,2 55648  70.0032  64.1619 0003037 274.0716  86.0096 14.98282701 68701,6950.339,96.11,574.315,570.093,0.0
55648.0,STARLINK-5501,PAYLOAD,2024-05-12 21:55:23,14.98237339,0.0003005,70.0021,63.1513,270.884,89.1975,-0.0017526,-0.00020893,0.0,0 STARLINK-5501,1 55648U 23021W   24133.91346619 -.00020893  00000-0 -17526-2 0  9995,2 55648  70.0021  63.1513 0003005 270.8840  89.1975 14.98237339 68761,6950.479,96.113,574.433,570.256,0.0
55648.0,STARLINK-5501,PAYLOAD,2024-05-13 02:43:45,14.98297165,0.0002673,70.0022,62.6478,258.468,101.6179,-0.00047342,-5.732e-05,0.0,0 STARLINK-5501,1 55648U 23021W   24134.11372520 -.00005732  00000-0 -47342-3 0  9993,2 55648  70.0022  62.6478 0002673 258.4680 101.6179 14.98297165 68792,6950.294,96.109,574.017,570.302,0.0
